{
  "type": "FeatureCollection",
  "features": [
    {
      "type": "Feature",
      "properties": {
        "norad_id": 66753,
        "name": "ICEYE-X60",
        "group": "last-30-days",
        "lat": -23.317010916852116,
        "lon": 73.19358854814689,
        "alt_km": 521.6555544337689,
        "timestamp": "2025-12-24T09:46:29.715257+00:00",
        "meta_object_name": "ICEYE-X60",
        "meta_object_id": "2025-276CR",
        "meta_epoch": "2025-12-22T16:43:05.853792",
        "meta_mean_motion": 15.17180475,
        "meta_eccentricity": 0.00011044,
        "meta_inclination": 97.441,
        "meta_ra_of_asc_node": 68.2849,
        "meta_arg_of_pericenter": 193.8242,
        "meta_mean_anomaly": 166.2962,
        "meta_ephemeris_type": 0,
        "meta_classification_type": "U",
        "meta_norad_cat_id": 66753,
        "meta_element_set_no": 999,
        "meta_rev_at_epoch": 363,
        "meta_bstar": -0.0054396978,
        "meta_mean_motion_dot": -0.00106457,
        "meta_mean_motion_ddot": 0,
        "tle_line1": "1 66753U 25276CR  25356.69659553 -.00106457  00000+0 -54397-2 0  9992",
        "tle_line2": "2 66753  97.4410  68.2849 0001104 193.8242 166.2962 15.17180475  3639"
      },
      "geometry": {
        "type": "Point",
        "coordinates": [
          73.19358854814689,
          -23.317010916852116
        ]
      }
    },
    {
      "type": "Feature",
      "properties": {
        "norad_id": 66754,
        "name": "ICEYE-X61",
        "group": "last-30-days",
        "lat": 23.27226864488622,
        "lon": 66.76085436494053,
        "alt_km": 513.4588378135004,
        "timestamp": "2025-12-24T09:46:29.715267+00:00",
        "meta_object_name": "ICEYE-X61",
        "meta_object_id": "2025-276CS",
        "meta_epoch": "2025-12-24T03:20:34.884096",
        "meta_mean_motion": 15.17860785,
        "meta_eccentricity": 0.0002324,
        "meta_inclination": 97.4405,
        "meta_ra_of_asc_node": 69.7196,
        "meta_arg_of_pericenter": 187.7394,
        "meta_mean_anomaly": 172.3805,
        "meta_ephemeris_type": 0,
        "meta_classification_type": "U",
        "meta_norad_cat_id": 66754,
        "meta_element_set_no": 999,
        "meta_rev_at_epoch": 385,
        "meta_bstar": 0.00046384,
        "meta_mean_motion_dot": 9.332e-05,
        "meta_mean_motion_ddot": 0,
        "tle_line1": "1 66754U 25276CS  25358.13929264  .00009332  00000+0  46384-3 0  9993",
        "tle_line2": "2 66754  97.4405  69.7196 0002324 187.7394 172.3805 15.17860785  3857"
      },
      "geometry": {
        "type": "Point",
        "coordinates": [
          66.76085436494053,
          23.27226864488622
        ]
      }
    },
    {
      "type": "Feature",
      "properties": {
        "norad_id": 66755,
        "name": "ICEYE-X62",
        "group": "last-30-days",
        "lat": -0.39635080723652893,
        "lon": 70.02018085727998,
        "alt_km": 515.7117264869885,
        "timestamp": "2025-12-24T09:46:29.715284+00:00",
        "meta_object_name": "ICEYE-X62",
        "meta_object_id": "2025-276CT",
        "meta_epoch": "2025-12-22T22:57:46.373472",
        "meta_mean_motion": 15.17604649,
        "meta_eccentricity": 0.00026826,
        "meta_inclination": 97.4395,
        "meta_ra_of_asc_node": 68.5434,
        "meta_arg_of_pericenter": 290.3052,
        "meta_mean_anomaly": 69.7893,
        "meta_ephemeris_type": 0,
        "meta_classification_type": "U",
        "meta_norad_cat_id": 66755,
        "meta_element_set_no": 999,
        "meta_rev_at_epoch": 367,
        "meta_bstar": 7.2637995e-05,
        "meta_mean_motion_dot": 1.393e-05,
        "meta_mean_motion_ddot": 0,
        "tle_line1": "1 66755U 25276CT  25356.95678673  .00001393  00000+0  72638-4 0  9998",
        "tle_line2": "2 66755  97.4395  68.5434 0002682 290.3052  69.7893 15.17604649  3678"
      },
      "geometry": {
        "type": "Point",
        "coordinates": [
          70.02018085727998,
          -0.39635080723652893
        ]
      }
    },
    {
      "type": "Feature",
      "properties": {
        "norad_id": 66756,
        "name": "TRANSPORTER-15CU",
        "group": "last-30-days",
        "lat": 29.56398078703204,
        "lon": 65.73780207792933,
        "alt_km": 511.25002911649426,
        "timestamp": "2025-12-24T09:46:29.715314+00:00",
        "meta_object_name": "TRANSPORTER-15CU",
        "meta_object_id": "2025-276CU",
        "meta_epoch": "2025-12-24T03:18:55.904256",
        "meta_mean_motion": 15.17956857,
        "meta_eccentricity": 0.0001659,
        "meta_inclination": 97.4413,
        "meta_ra_of_asc_node": 69.725,
        "meta_arg_of_pericenter": 154.0488,
        "meta_mean_anomaly": 206.0829,
        "meta_ephemeris_type": 0,
        "meta_classification_type": "U",
        "meta_norad_cat_id": 66756,
        "meta_element_set_no": 999,
        "meta_rev_at_epoch": 385,
        "meta_bstar": 0.00033804,
        "meta_mean_motion_dot": 6.799e-05,
        "meta_mean_motion_ddot": 0,
        "tle_line1": "1 66756U 25276CU  25358.13814704  .00006799  00000+0  33804-3 0  9994",
        "tle_line2": "2 66756  97.4413  69.7250 0001659 154.0488 206.0829 15.17956857  3857"
      },
      "geometry": {
        "type": "Point",
        "coordinates": [
          65.73780207792933,
          29.56398078703204
        ]
      }
    },
    {
      "type": "Feature",
      "properties": {
        "norad_id": 66757,
        "name": "TRANSPORTER-15CV",
        "group": "last-30-days",
        "lat": 37.77680183989548,
        "lon": 64.18193763236566,
        "alt_km": 509.4297051016165,
        "timestamp": "2025-12-24T09:46:29.715325+00:00",
        "meta_object_name": "TRANSPORTER-15CV",
        "meta_object_id": "2025-276CV",
        "meta_epoch": "2025-12-24T03:16:46.526304",
        "meta_mean_motion": 15.18086854,
        "meta_eccentricity": 0.000193,
        "meta_inclination": 97.4421,
        "meta_ra_of_asc_node": 69.7303,
        "meta_arg_of_pericenter": 152.3902,
        "meta_mean_anomaly": 207.7435,
        "meta_ephemeris_type": 0,
        "meta_classification_type": "U",
        "meta_norad_cat_id": 66757,
        "meta_element_set_no": 999,
        "meta_rev_at_epoch": 385,
        "meta_bstar": 0.00075599,
        "meta_mean_motion_dot": 0.00015363,
        "meta_mean_motion_ddot": 0,
        "tle_line1": "1 66757U 25276CV  25358.13664961  .00015363  00000+0  75599-3 0  9997",
        "tle_line2": "2 66757  97.4421  69.7303 0001930 152.3902 207.7435 15.18086854  3853"
      },
      "geometry": {
        "type": "Point",
        "coordinates": [
          64.18193763236566,
          37.77680183989548
        ]
      }
    },
    {
      "type": "Feature",
      "properties": {
        "norad_id": 66758,
        "name": "TRANSPORTER-15CW",
        "group": "last-30-days",
        "lat": 39.27883153644648,
        "lon": 63.851834219521,
        "alt_km": 508.7804022028504,
        "timestamp": "2025-12-24T09:46:29.715339+00:00",
        "meta_object_name": "TRANSPORTER-15CW",
        "meta_object_id": "2025-276CW",
        "meta_epoch": "2025-12-24T03:16:22.519200",
        "meta_mean_motion": 15.18087129,
        "meta_eccentricity": 0.0001447,
        "meta_inclination": 97.4393,
        "meta_ra_of_asc_node": 69.7203,
        "meta_arg_of_pericenter": 136.3832,
        "meta_mean_anomaly": 223.7516,
        "meta_ephemeris_type": 0,
        "meta_classification_type": "U",
        "meta_norad_cat_id": 66758,
        "meta_element_set_no": 999,
        "meta_rev_at_epoch": 385,
        "meta_bstar": 0.0003724,
        "meta_mean_motion_dot": 7.526e-05,
        "meta_mean_motion_ddot": 0,
        "tle_line1": "1 66758U 25276CW  25358.13637175  .00007526  00000+0  37240-3 0  9998",
        "tle_line2": "2 66758  97.4393  69.7203 0001447 136.3832 223.7516 15.18087129  3852"
      },
      "geometry": {
        "type": "Point",
        "coordinates": [
          63.851834219521,
          39.27883153644648
        ]
      }
    },
    {
      "type": "Feature",
      "properties": {
        "norad_id": 66759,
        "name": "TRANSPORTER-15CX",
        "group": "last-30-days",
        "lat": 48.88902965416683,
        "lon": 61.37694870170834,
        "alt_km": 506.7203228069566,
        "timestamp": "2025-12-24T09:46:29.715349+00:00",
        "meta_object_name": "TRANSPORTER-15CX",
        "meta_object_id": "2025-276CX",
        "meta_epoch": "2025-12-24T03:13:50.465568",
        "meta_mean_motion": 15.18234635,
        "meta_eccentricity": 0.0001805,
        "meta_inclination": 97.4377,
        "meta_ra_of_asc_node": 69.7181,
        "meta_arg_of_pericenter": 137.2523,
        "meta_mean_anomaly": 222.8851,
        "meta_ephemeris_type": 0,
        "meta_classification_type": "U",
        "meta_norad_cat_id": 66759,
        "meta_element_set_no": 999,
        "meta_rev_at_epoch": 385,
        "meta_bstar": 0.00075945,
        "meta_mean_motion_dot": 0.000155,
        "meta_mean_motion_ddot": 0,
        "tle_line1": "1 66759U 25276CX  25358.13461187  .00015500  00000+0  75945-3 0  9992",
        "tle_line2": "2 66759  97.4377  69.7181 0001805 137.2523 222.8851 15.18234635  3853"
      },
      "geometry": {
        "type": "Point",
        "coordinates": [
          61.37694870170834,
          48.88902965416683
        ]
      }
    }
  ]
}